CZ-2C R/B               
1 54039U 22132E   25365.45665360  .00042826  00000+0  60820-3 0  9997
2 54039  97.2940   2.0296 0019602 351.8672   8.2262 15.56070507179747
GSLV R/B                
1 54149U 22138AN  25365.51585007  .00005225  00000+0  45822-3 0  9998
2 54149  87.3818 189.1846 0023463  43.9182 316.3909 14.96240621173739
XRISM                   
1 57800U 23137A   25365.40378031  .00009529  00000+0  55724-3 0  9993
2 57800  31.0036   5.0261 0007589  74.3989 285.7486 15.10566213127457
ACS3                    
1 59588U 24077B   25365.45224686  .00034527  00000+0  29085-1 0  9998
2 59588  97.2543 316.8771 0071424 291.4835  67.8722 13.86469347 84735
SZ-21 MODULE            
1 66515U 25246C   25365.06945746  .00040549  00000+0  42604-3 0  9994
2 66515  41.4763 264.1497 0003033   3.4177 356.6683 15.63556813  7315
