CCSDS_OMM_VERS = 2.0
CREATION_DATE  = 
ORIGINATOR     = 

OBJECT_NAME    = CZ-2C R/B
OBJECT_ID      = 2022-132E
CENTER_NAME    = EARTH
REF_FRAME      = TEME
TIME_SYSTEM    = UTC
MEAN_ELEMENT_THEORY = SGP/SGP4

EPOCH          = 2025-12-31T10:57:34.871040
MEAN_MOTION    = 15.56070507
ECCENTRICITY   = .0019602
INCLINATION    = 97.2940
RA_OF_ASC_NODE = 2.0296
ARG_OF_PERICENTER = 351.8672
MEAN_ANOMALY   = 8.2262

EPHEMERIS_TYPE = 0
CLASSIFICATION_TYPE = U
NORAD_CAT_ID   = 54039
ELEMENT_SET_NO = 999
REV_AT_EPOCH   = 17974
BSTAR          = .6082E-3
MEAN_MOTION_DOT = .42826E-3
MEAN_MOTION_DDOT = 0

CCSDS_OMM_VERS = 2.0
CREATION_DATE  = 
ORIGINATOR     = 

OBJECT_NAME    = GSLV R/B
OBJECT_ID      = 2022-138AN
CENTER_NAME    = EARTH
REF_FRAME      = TEME
TIME_SYSTEM    = UTC
MEAN_ELEMENT_THEORY = SGP/SGP4

EPOCH          = 2025-12-31T12:22:49.446048
MEAN_MOTION    = 14.96240621
ECCENTRICITY   = .0023463
INCLINATION    = 87.3818
RA_OF_ASC_NODE = 189.1846
ARG_OF_PERICENTER = 43.9182
MEAN_ANOMALY   = 316.3909

EPHEMERIS_TYPE = 0
CLASSIFICATION_TYPE = U
NORAD_CAT_ID   = 54149
ELEMENT_SET_NO = 999
REV_AT_EPOCH   = 17373
BSTAR          = .45822E-3
MEAN_MOTION_DOT = .5225E-4
MEAN_MOTION_DDOT = 0

CCSDS_OMM_VERS = 2.0
CREATION_DATE  = 
ORIGINATOR     = 

OBJECT_NAME    = XRISM
OBJECT_ID      = 2023-137A
CENTER_NAME    = EARTH
REF_FRAME      = TEME
TIME_SYSTEM    = UTC
MEAN_ELEMENT_THEORY = SGP/SGP4

EPOCH          = 2025-12-31T09:41:26.618784
MEAN_MOTION    = 15.10566213
ECCENTRICITY   = .0007589
INCLINATION    = 31.0036
RA_OF_ASC_NODE = 5.0261
ARG_OF_PERICENTER = 74.3989
MEAN_ANOMALY   = 285.7486

EPHEMERIS_TYPE = 0
CLASSIFICATION_TYPE = U
NORAD_CAT_ID   = 57800
ELEMENT_SET_NO = 999
REV_AT_EPOCH   = 12745
BSTAR          = .55724E-3
MEAN_MOTION_DOT = .9529E-4
MEAN_MOTION_DDOT = 0

CCSDS_OMM_VERS = 2.0
CREATION_DATE  = 
ORIGINATOR     = 

OBJECT_NAME    = ACS3
OBJECT_ID      = 2024-077B
CENTER_NAME    = EARTH
REF_FRAME      = TEME
TIME_SYSTEM    = UTC
MEAN_ELEMENT_THEORY = SGP/SGP4

EPOCH          = 2025-12-31T10:51:14.128704
MEAN_MOTION    = 13.86469347
ECCENTRICITY   = .0071424
INCLINATION    = 97.2543
RA_OF_ASC_NODE = 316.8771
ARG_OF_PERICENTER = 291.4835
MEAN_ANOMALY   = 67.8722

EPHEMERIS_TYPE = 0
CLASSIFICATION_TYPE = U
NORAD_CAT_ID   = 59588
ELEMENT_SET_NO = 999
REV_AT_EPOCH   = 8473
BSTAR          = .29085E-1
MEAN_MOTION_DOT = .34527E-3
MEAN_MOTION_DDOT = 0

CCSDS_OMM_VERS = 2.0
CREATION_DATE  = 
ORIGINATOR     = 

OBJECT_NAME    = SZ-21 MODULE
OBJECT_ID      = 2025-246C
CENTER_NAME    = EARTH
REF_FRAME      = TEME
TIME_SYSTEM    = UTC
MEAN_ELEMENT_THEORY = SGP/SGP4

EPOCH          = 2025-12-31T01:40:01.124544
MEAN_MOTION    = 15.63556813
ECCENTRICITY   = .0003033
INCLINATION    = 41.4763
RA_OF_ASC_NODE = 264.1497
ARG_OF_PERICENTER = 3.4177
MEAN_ANOMALY   = 356.6683

EPHEMERIS_TYPE = 0
CLASSIFICATION_TYPE = U
NORAD_CAT_ID   = 66515
ELEMENT_SET_NO = 999
REV_AT_EPOCH   = 731
BSTAR          = .42604371E-3
MEAN_MOTION_DOT = .40549E-3
MEAN_MOTION_DDOT = 0

